{"type": "FeatureCollection", "features": [{"type": "Feature", "geometry": {"type": "Polygon", "coordinates": [[[-45.7937, -23.292], [-45.8069, -23.2927], [-45.8147, -23.2899], [-45.8238, -23.2953], [-45.8347, -23.294], [-45.8473, -23.3067], [-45.8614, -23.3041], [-45.8701, -23.298], [-45.885, -23.2994], [-45.8907, -23.2962], [-45.904, -23.2948], [-45.9088, -23.2896], [-45.9125, -23.2773], [-45.9212, -23.2631], [-45.9335, -23.2569], [-45.9413, -23.2599], [-45.954, -23.2559], [-45.9637, -23.2454], [-45.9658, -23.2355], [-45.9592, -23.2194], [-45.9482, -23.2134], [-45.9559, -23.2039], [-45.9624, -23.2056], [-45.9691, -23.1999], [-45.9818, -23.1995], [-45.9981, -23.1866], [-46.0201, -23.2027], [-46.0381, -23.1891], [-46.0497, -23.1895], [-46.0592, -23.1723], [-46.0748, -23.1809], [-46.0798, -23.1866], [-46.0763, -23.1932], [-46.0809, -23.1972], [-46.0807, -23.2066], [-46.0912, -23.208], [-46.0925, -23.2139], [-46.1039, -23.225], [-46.1165, -23.2297], [-46.1182, -23.2363], [-46.1287, -23.2439], [-46.1284, -23.2498], [-46.1366, -23.2557], [-46.1457, -23.2568], [-46.1507, -23.2619], [-46.152, -23.2724], [-46.1451, -23.2738], [-46.1349, -23.2879], [-46.1192, -23.2854], [-46.1127, -23.2886], [-46.1138, -23.2993], [-46.1029, -23.3029], [-46.1015, -23.3086], [-46.0979, -23.3195], [-46.099, -23.326], [-46.08, -23.3415], [-46.0683, -23.3483], [-46.0678, -23.355], [-46.0577, -23.3611], [-46.0413, -23.3844], [-46.0295, -23.3918], [-46.0224, -23.3877], [-46.0154, -23.3909], [-46.0105, -23.3843], [-46.0025, -23.3853], [-45.9983, -23.3914], [-45.9971, -23.4021], [-45.9912, -23.4175], [-45.9874, -23.4198], [-45.9807, -23.4144], [-45.981, -23.4068], [-45.9743, -23.4012], [-45.9613, -23.3969], [-45.9492, -23.3954], [-45.9465, -23.3898], [-45.9328, -23.3966], [-45.9345, -23.3886], [-45.9293, -23.3822], [-45.9241, -23.3913], [-45.9171, -23.3867], [-45.9299, -23.3756], [-45.9308, -23.3668], [-45.9021, -23.384], [-45.8927, -23.3836], [-45.9008, -23.3723], [-45.8996, -23.3684], [-45.883, -23.3756], [-45.8762, -23.3731], [-45.8615, -23.3756], [-45.8546, -23.3547], [-45.8452, -23.3558], [-45.8442, -23.3424], [-45.8386, -23.3354], [-45.8312, -23.3433], [-45.8229, -23.347], [-45.8146, -23.3372], [-45.8057, -23.3414], [-45.803, -23.3294], [-45.808, -23.3242], [-45.8061, -23.3031], [-45.7952, -23.2973], [-45.7937, -23.292]]]}, "properties": {"codarea": "3524402"}}]}